LEMUR-2-LLOYD           
1 60577U 24149DP  26068.46001441  .00012007  00000+0  80143-3 0  9995
2 60577  97.6780 149.6779 0005186 125.6096 234.5616 15.07168338 85367
STARLINK-34945          
1 65185U 25175M   26068.64670860  .00007286  00000+0  50854-3 0  9991
2 65185  97.6009 302.6097 0002954  93.2540 266.9025 15.05654082 32638
